{"fetched_at":"2026-07-10T07:58:43.188Z","source":"https://celestrak.org/NORAD/elements/gp.php?GROUP=planet&FORMAT=JSON","constellation":"skysat","records":[{"OBJECT_NAME":"SKYSAT-A","OBJECT_ID":"2013-066C","EPOCH":"2026-07-09T13:04:14.775744","CLASSIFICATION_TYPE":"U","MEAN_MOTION":15.13096648,"ECCENTRICITY":0.0020026,"INCLINATION":97.3805,"RA_OF_ASC_NODE":239.2292,"ARG_OF_PERICENTER":233.9327,"MEAN_ANOMALY":126.005,"EPHEMERIS_TYPE":0,"NORAD_CAT_ID":39418,"ELEMENT_SET_NO":999,"REV_AT_EPOCH":69186,"BSTAR":0.00012862,"MEAN_MOTION_DOT":0.00002223,"MEAN_MOTION_DDOT":0},{"OBJECT_NAME":"SKYSAT-B","OBJECT_ID":"2014-037D","EPOCH":"2026-07-09T07:33:51.208992","CLASSIFICATION_TYPE":"U","MEAN_MOTION":14.88083155,"ECCENTRICITY":0.00051028,"INCLINATION":98.385,"RA_OF_ASC_NODE":150.5437,"ARG_OF_PERICENTER":192.3178,"MEAN_ANOMALY":167.7912,"EPHEMERIS_TYPE":0,"NORAD_CAT_ID":40072,"ELEMENT_SET_NO":999,"REV_AT_EPOCH":64925,"BSTAR":0.00010665521,"MEAN_MOTION_DOT":0.00000919,"MEAN_MOTION_DDOT":0},{"OBJECT_NAME":"SKYSAT-C1","OBJECT_ID":"2016-040C","EPOCH":"2026-07-09T00:48:28.316448","CLASSIFICATION_TYPE":"U","MEAN_MOTION":15.36676665,"ECCENTRICITY":0.00009402,"INCLINATION":96.956,"RA_OF_ASC_NODE":220.5725,"ARG_OF_PERICENTER":8.0156,"MEAN_ANOMALY":352.1104,"EPHEMERIS_TYPE":0,"NORAD_CAT_ID":41601,"ELEMENT_SET_NO":999,"REV_AT_EPOCH":56122,"BSTAR":0.00017620549,"MEAN_MOTION_DOT":0.00006236,"MEAN_MOTION_DDOT":0},{"OBJECT_NAME":"SKYSAT-C4","OBJECT_ID":"2016-058B","EPOCH":"2026-07-09T07:08:02.581440","CLASSIFICATION_TYPE":"U","MEAN_MOTION":15.49300988,"ECCENTRICITY":0.0003288,"INCLINATION":96.917,"RA_OF_ASC_NODE":211.1523,"ARG_OF_PERICENTER":126.7848,"MEAN_ANOMALY":233.3706,"EPHEMERIS_TYPE":0,"NORAD_CAT_ID":41771,"ELEMENT_SET_NO":999,"REV_AT_EPOCH":54889,"BSTAR":0.00025396276,"MEAN_MOTION_DOT":0.00013809,"MEAN_MOTION_DDOT":0},{"OBJECT_NAME":"SKYSAT-C5","OBJECT_ID":"2016-058C","EPOCH":"2026-07-09T15:58:24.371040","CLASSIFICATION_TYPE":"U","MEAN_MOTION":15.33951399,"ECCENTRICITY":0.0001828,"INCLINATION":97.0474,"RA_OF_ASC_NODE":230.2992,"ARG_OF_PERICENTER":80.3892,"MEAN_ANOMALY":279.7558,"EPHEMERIS_TYPE":0,"NORAD_CAT_ID":41772,"ELEMENT_SET_NO":999,"REV_AT_EPOCH":54719,"BSTAR":0.0003352,"MEAN_MOTION_DOT":0.0001094,"MEAN_MOTION_DDOT":0},{"OBJECT_NAME":"SKYSAT-C2","OBJECT_ID":"2016-058D","EPOCH":"2026-07-08T23:51:39.410496","CLASSIFICATION_TYPE":"U","MEAN_MOTION":15.42580195,"ECCENTRICITY":0.00022198,"INCLINATION":97.0167,"RA_OF_ASC_NODE":211.2736,"ARG_OF_PERICENTER":17.2519,"MEAN_ANOMALY":342.8804,"EPHEMERIS_TYPE":0,"NORAD_CAT_ID":41773,"ELEMENT_SET_NO":999,"REV_AT_EPOCH":54841,"BSTAR":0.00020101756,"MEAN_MOTION_DOT":0.00008655,"MEAN_MOTION_DDOT":0},{"OBJECT_NAME":"SKYSAT-C3","OBJECT_ID":"2016-058E","EPOCH":"2026-07-08T23:40:37.758432","CLASSIFICATION_TYPE":"U","MEAN_MOTION":15.5350107,"ECCENTRICITY":0.00021056,"INCLINATION":96.9004,"RA_OF_ASC_NODE":220.0058,"ARG_OF_PERICENTER":133.8993,"MEAN_ANOMALY":226.2436,"EPHEMERIS_TYPE":0,"NORAD_CAT_ID":41774,"ELEMENT_SET_NO":999,"REV_AT_EPOCH":54949,"BSTAR":0.0002692674,"MEAN_MOTION_DOT":0.00017017,"MEAN_MOTION_DDOT":0},{"OBJECT_NAME":"SKYSAT-C11","OBJECT_ID":"2017-068A","EPOCH":"2026-07-09T15:48:01.789056","CLASSIFICATION_TYPE":"U","MEAN_MOTION":15.59105762,"ECCENTRICITY":0.0000812,"INCLINATION":97.4368,"RA_OF_ASC_NODE":340.4901,"ARG_OF_PERICENTER":166.0165,"MEAN_ANOMALY":194.1114,"EPHEMERIS_TYPE":0,"NORAD_CAT_ID":42987,"ELEMENT_SET_NO":999,"REV_AT_EPOCH":48674,"BSTAR":0.00027645,"MEAN_MOTION_DOT":0.00021499,"MEAN_MOTION_DDOT":0},{"OBJECT_NAME":"SKYSAT-C10","OBJECT_ID":"2017-068B","EPOCH":"2026-07-09T15:42:35.169408","CLASSIFICATION_TYPE":"U","MEAN_MOTION":15.35042344,"ECCENTRICITY":0.0001361,"INCLINATION":97.4523,"RA_OF_ASC_NODE":327.7297,"ARG_OF_PERICENTER":109.0541,"MEAN_ANOMALY":251.085,"EPHEMERIS_TYPE":0,"NORAD_CAT_ID":42988,"ELEMENT_SET_NO":999,"REV_AT_EPOCH":48580,"BSTAR":0.00023222,"MEAN_MOTION_DOT":0.00007814,"MEAN_MOTION_DDOT":0},{"OBJECT_NAME":"SKYSAT-C9","OBJECT_ID":"2017-068C","EPOCH":"2026-07-09T15:06:23.132160","CLASSIFICATION_TYPE":"U","MEAN_MOTION":15.42121068,"ECCENTRICITY":0.0009065,"INCLINATION":97.4443,"RA_OF_ASC_NODE":328.856,"ARG_OF_PERICENTER":62.2816,"MEAN_ANOMALY":297.9349,"EPHEMERIS_TYPE":0,"NORAD_CAT_ID":42989,"ELEMENT_SET_NO":999,"REV_AT_EPOCH":48621,"BSTAR":0.0002151,"MEAN_MOTION_DOT":0.0000913,"MEAN_MOTION_DDOT":0},{"OBJECT_NAME":"SKYSAT-C8","OBJECT_ID":"2017-068D","EPOCH":"2026-07-09T15:45:21.892896","CLASSIFICATION_TYPE":"U","MEAN_MOTION":15.37418485,"ECCENTRICITY":0.0001224,"INCLINATION":97.4543,"RA_OF_ASC_NODE":327.618,"ARG_OF_PERICENTER":99.9689,"MEAN_ANOMALY":260.1694,"EPHEMERIS_TYPE":0,"NORAD_CAT_ID":42990,"ELEMENT_SET_NO":999,"REV_AT_EPOCH":48576,"BSTAR":0.00020712,"MEAN_MOTION_DOT":0.00007514,"MEAN_MOTION_DDOT":0},{"OBJECT_NAME":"SKYSAT-C7","OBJECT_ID":"2017-068E","EPOCH":"2026-07-09T15:37:10.417728","CLASSIFICATION_TYPE":"U","MEAN_MOTION":15.37370143,"ECCENTRICITY":0.0006199,"INCLINATION":97.4551,"RA_OF_ASC_NODE":328.6033,"ARG_OF_PERICENTER":39.6493,"MEAN_ANOMALY":320.5204,"EPHEMERIS_TYPE":0,"NORAD_CAT_ID":42991,"ELEMENT_SET_NO":999,"REV_AT_EPOCH":48582,"BSTAR":0.00020193,"MEAN_MOTION_DOT":0.00007316,"MEAN_MOTION_DDOT":0},{"OBJECT_NAME":"SKYSAT-C6","OBJECT_ID":"2017-068F","EPOCH":"2026-07-09T15:34:22.751616","CLASSIFICATION_TYPE":"U","MEAN_MOTION":15.34106572,"ECCENTRICITY":0.0005163,"INCLINATION":97.4588,"RA_OF_ASC_NODE":328.4799,"ARG_OF_PERICENTER":103.1836,"MEAN_ANOMALY":256.9983,"EPHEMERIS_TYPE":0,"NORAD_CAT_ID":42992,"ELEMENT_SET_NO":999,"REV_AT_EPOCH":48576,"BSTAR":0.00019987,"MEAN_MOTION_DOT":0.00006518,"MEAN_MOTION_DDOT":0},{"OBJECT_NAME":"SKYSAT-C12","OBJECT_ID":"2018-099AR","EPOCH":"2026-07-09T19:55:14.611008","CLASSIFICATION_TYPE":"U","MEAN_MOTION":15.49659288,"ECCENTRICITY":0.0005706,"INCLINATION":96.9264,"RA_OF_ASC_NODE":213.165,"ARG_OF_PERICENTER":81.7664,"MEAN_ANOMALY":278.4235,"EPHEMERIS_TYPE":0,"NORAD_CAT_ID":43797,"ELEMENT_SET_NO":999,"REV_AT_EPOCH":42536,"BSTAR":0.00024421,"MEAN_MOTION_DOT":0.00013448,"MEAN_MOTION_DDOT":0}]}
